[{"OBJECT_NAME":"ONEWEB-0243","OBJECT_ID":"2021-045H","EPOCH":"2025-12-04T14:04:19.337088","MEAN_MOTION":13.15548859,"ECCENTRICITY":0.0002243,"INCLINATION":87.8988,"RA_OF_ASC_NODE":298.0539,"ARG_OF_PERICENTER":81.3948,"MEAN_ANOMALY":278.7436,"EPHEMERIS_TYPE":0,"CLASSIFICATION_TYPE":"U","NORAD_CAT_ID":48774,"ELEMENT_SET_NO":999,"REV_AT_EPOCH":21877,"BSTAR":0.00038149,"MEAN_MOTION_DOT":1.56e-6,"MEAN_MOTION_DDOT":0},{"OBJECT_NAME":"ONEWEB-0222","OBJECT_ID":"2021-045J","EPOCH":"2025-12-04T10:01:19.464096","MEAN_MOTION":13.15549732,"ECCENTRICITY":0.0001986,"INCLINATION":87.8991,"RA_OF_ASC_NODE":298.0407,"ARG_OF_PERICENTER":79.0479,"MEAN_ANOMALY":281.0875,"EPHEMERIS_TYPE":0,"CLASSIFICATION_TYPE":"U","NORAD_CAT_ID":48775,"ELEMENT_SET_NO":999,"REV_AT_EPOCH":21879,"BSTAR":0.00034282,"MEAN_MOTION_DOT":1.42e-6,"MEAN_MOTION_DDOT":0},{"OBJECT_NAME":"ONEWEB-0244","OBJECT_ID":"2021-045K","EPOCH":"2025-12-04T14:18:00.974304","MEAN_MOTION":13.15549548,"ECCENTRICITY":0.000197,"INCLINATION":87.8998,"RA_OF_ASC_NODE":297.9918,"ARG_OF_PERICENTER":79.4322,"MEAN_ANOMALY":280.703,"EPHEMERIS_TYPE":0,"CLASSIFICATION_TYPE":"U","NORAD_CAT_ID":48776,"ELEMENT_SET_NO":999,"REV_AT_EPOCH":21938,"BSTAR":0.0001281,"MEAN_MOTION_DOT":6.1e-7,"MEAN_MOTION_DDOT":0},{"OBJECT_NAME":"ONEWEB-0247","OBJECT_ID":"2021-045L","EPOCH":"2025-12-04T10:34:24.524832","MEAN_MOTION":13.15548162,"ECCENTRICITY":0.0002787,"INCLINATION":87.898,"RA_OF_ASC_NODE":298.0808,"ARG_OF_PERICENTER":78.7062,"MEAN_ANOMALY":281.4382,"EPHEMERIS_TYPE":0,"CLASSIFICATION_TYPE":"U","NORAD_CAT_ID":48777,"ELEMENT_SET_NO":999,"REV_AT_EPOCH":21880,"BSTAR":-3.776e-5,"MEAN_MOTION_DOT":-1.0e-8,"MEAN_MOTION_DDOT":0},{"OBJECT_NAME":"ONEWEB-0245","OBJECT_ID":"2021-045M","EPOCH":"2025-12-04T14:06:36.398592","MEAN_MOTION":13.15548803,"ECCENTRICITY":0.0001869,"INCLINATION":87.8982,"RA_OF_ASC_NODE":298.0159,"ARG_OF_PERICENTER":73.6399,"MEAN_ANOMALY":286.4937,"EPHEMERIS_TYPE":0,"CLASSIFICATION_TYPE":"U","NORAD_CAT_ID":48778,"ELEMENT_SET_NO":999,"REV_AT_EPOCH":21879,"BSTAR":0.00040766,"MEAN_MOTION_DOT":1.66e-6,"MEAN_MOTION_DDOT":0},{"OBJECT_NAME":"ONEWEB-0229","OBJECT_ID":"2021-045N","EPOCH":"2025-12-04T13:59:45.538080","MEAN_MOTION":13.15548163,"ECCENTRICITY":0.0001951,"INCLINATION":87.898,"RA_OF_ASC_NODE":298.0155,"ARG_OF_PERICENTER":82.4455,"MEAN_ANOMALY":277.6897,"EPHEMERIS_TYPE":0,"CLASSIFICATION_TYPE":"U","NORAD_CAT_ID":48779,"ELEMENT_SET_NO":999,"REV_AT_EPOCH":21882,"BSTAR":0.00033486,"MEAN_MOTION_DOT":1.39e-6,"MEAN_MOTION_DDOT":0},{"OBJECT_NAME":"ONEWEB-0228","OBJECT_ID":"2021-045P","EPOCH":"2025-12-04T14:47:51.266112","MEAN_MOTION":13.15550125,"ECCENTRICITY":0.0002025,"INCLINATION":87.8984,"RA_OF_ASC_NODE":297.9917,"ARG_OF_PERICENTER":79.8796,"MEAN_ANOMALY":280.2563,"EPHEMERIS_TYPE":0,"CLASSIFICATION_TYPE":"U","NORAD_CAT_ID":48780,"ELEMENT_SET_NO":999,"REV_AT_EPOCH":21874,"BSTAR":-0.0024625,"MEAN_MOTION_DOT":-9.14e-6,"MEAN_MOTION_DDOT":0},{"OBJECT_NAME":"ONEWEB-0232","OBJECT_ID":"2021-045Q","EPOCH":"2025-12-04T14:11:10.558752","MEAN_MOTION":13.15548464,"ECCENTRICITY":0.0001862,"INCLINATION":87.8998,"RA_OF_ASC_NODE":297.9888,"ARG_OF_PERICENTER":80.0059,"MEAN_ANOMALY":280.1281,"EPHEMERIS_TYPE":0,"CLASSIFICATION_TYPE":"U","NORAD_CAT_ID":48781,"ELEMENT_SET_NO":999,"REV_AT_EPOCH":21906,"BSTAR":0.0003086,"MEAN_MOTION_DOT":1.29e-6,"MEAN_MOTION_DDOT":0},{"OBJECT_NAME":"ONEWEB-0231","OBJECT_ID":"2021-045R","EPOCH":"2025-12-04T15:28:45.382080","MEAN_MOTION":13.15548499,"ECCENTRICITY":0.0002111,"INCLINATION":87.8979,"RA_OF_ASC_NODE":298.022,"ARG_OF_PERICENTER":79.8142,"MEAN_ANOMALY":280.3227,"EPHEMERIS_TYPE":0,"CLASSIFICATION_TYPE":"U","NORAD_CAT_ID":48782,"ELEMENT_SET_NO":999,"REV_AT_EPOCH":21876,"BSTAR":0.00037302,"MEAN_MOTION_DOT":1.53e-6,"MEAN_MOTION_DDOT":0},{"OBJECT_NAME":"ONEWEB-0234","OBJECT_ID":"2021-045S","EPOCH":"2025-12-04T14:33:47.106144","MEAN_MOTION":13.15547966,"ECCENTRICITY":0.0001252,"INCLINATION":87.8986,"RA_OF_ASC_NODE":298.0029,"ARG_OF_PERICENTER":56.2388,"MEAN_ANOMALY":303.8861,"EPHEMERIS_TYPE":0,"CLASSIFICATION_TYPE":"U","NORAD_CAT_ID":48783,"ELEMENT_SET_NO":999,"REV_AT_EPOCH":21889,"BSTAR":-0.00022158,"MEAN_MOTION_DOT":-7.1e-7,"MEAN_MOTION_DDOT":0},{"OBJECT_NAME":"ONEWEB-0238","OBJECT_ID":"2021-045T","EPOCH":"2025-12-04T14:34:09.933888","MEAN_MOTION":13.15550396,"ECCENTRICITY":0.0001584,"INCLINATION":87.8981,"RA_OF_ASC_NODE":297.9967,"ARG_OF_PERICENTER":74.454,"MEAN_ANOMALY":285.6765,"EPHEMERIS_TYPE":0,"CLASSIFICATION_TYPE":"U","NORAD_CAT_ID":48784,"ELEMENT_SET_NO":999,"REV_AT_EPOCH":21879,"BSTAR":-9.7581e-5,"MEAN_MOTION_DOT":-2.4e-7,"MEAN_MOTION_DDOT":0},{"OBJECT_NAME":"ONEWEB-0240","OBJECT_ID":"2021-045U","EPOCH":"2025-12-04T09:36:13.519008","MEAN_MOTION":13.1554975,"ECCENTRICITY":0.0002015,"INCLINATION":87.8994,"RA_OF_ASC_NODE":298.0319,"ARG_OF_PERICENTER":71.4483,"MEAN_ANOMALY":288.6866,"EPHEMERIS_TYPE":0,"CLASSIFICATION_TYPE":"U","NORAD_CAT_ID":48785,"ELEMENT_SET_NO":999,"REV_AT_EPOCH":21879,"BSTAR":-8.0005e-5,"MEAN_MOTION_DOT":-1.7e-7,"MEAN_MOTION_DDOT":0},{"OBJECT_NAME":"ONEWEB-0246","OBJECT_ID":"2021-045V","EPOCH":"2025-12-04T09:28:14.119968","MEAN_MOTION":13.15549249,"ECCENTRICITY":0.0001979,"INCLINATION":87.8989,"RA_OF_ASC_NODE":298.0436,"ARG_OF_PERICENTER":83.652,"MEAN_ANOMALY":276.4835,"EPHEMERIS_TYPE":0,"CLASSIFICATION_TYPE":"U","NORAD_CAT_ID":48786,"ELEMENT_SET_NO":999,"REV_AT_EPOCH":21866,"BSTAR":-0.00022362,"MEAN_MOTION_DOT":-7.1e-7,"MEAN_MOTION_DDOT":0},{"OBJECT_NAME":"ONEWEB-0210","OBJECT_ID":"2021-045W","EPOCH":"2025-12-04T14:20:17.880288","MEAN_MOTION":13.15549011,"ECCENTRICITY":0.0002499,"INCLINATION":87.8991,"RA_OF_ASC_NODE":298.0021,"ARG_OF_PERICENTER":84.6913,"MEAN_ANOMALY":275.4503,"EPHEMERIS_TYPE":0,"CLASSIFICATION_TYPE":"U","NORAD_CAT_ID":48787,"ELEMENT_SET_NO":999,"REV_AT_EPOCH":21873,"BSTAR":5.7321e-5,"MEAN_MOTION_DOT":3.4e-7,"MEAN_MOTION_DDOT":0},{"OBJECT_NAME":"ONEWEB-0214","OBJECT_ID":"2021-045X","EPOCH":"2025-12-04T10:53:46.741344","MEAN_MOTION":13.15546807,"ECCENTRICITY":0.00022,"INCLINATION":87.8999,"RA_OF_ASC_NODE":298.0212,"ARG_OF_PERICENTER":88.0008,"MEAN_ANOMALY":272.1374,"EPHEMERIS_TYPE":0,"CLASSIFICATION_TYPE":"U","NORAD_CAT_ID":48788,"ELEMENT_SET_NO":999,"REV_AT_EPOCH":21868,"BSTAR":-6.3326e-5,"MEAN_MOTION_DOT":-1.1e-7,"MEAN_MOTION_DDOT":0},{"OBJECT_NAME":"ONEWEB-0221","OBJECT_ID":"2021-045Y","EPOCH":"2025-12-04T09:14:32.722080","MEAN_MOTION":13.15548691,"ECCENTRICITY":0.0002041,"INCLINATION":87.8987,"RA_OF_ASC_NODE":298.0506,"ARG_OF_PERICENTER":77.6184,"MEAN_ANOMALY":282.5174,"EPHEMERIS_TYPE":0,"CLASSIFICATION_TYPE":"U","NORAD_CAT_ID":48789,"ELEMENT_SET_NO":999,"REV_AT_EPOCH":21876,"BSTAR":-0.00031718,"MEAN_MOTION_DOT":-1.07e-6,"MEAN_MOTION_DDOT":0},{"OBJECT_NAME":"ONEWEB-0213","OBJECT_ID":"2021-045Z","EPOCH":"2025-12-04T14:27:08.325216","MEAN_MOTION":13.15550352,"ECCENTRICITY":0.0002119,"INCLINATION":87.8982,"RA_OF_ASC_NODE":298.0159,"ARG_OF_PERICENTER":79.7222,"MEAN_ANOMALY":280.4147,"EPHEMERIS_TYPE":0,"CLASSIFICATION_TYPE":"U","NORAD_CAT_ID":48790,"ELEMENT_SET_NO":999,"REV_AT_EPOCH":21885,"BSTAR":3.7754e-6,"MEAN_MOTION_DOT":1.4e-7,"MEAN_MOTION_DDOT":0}]
