ONEWEB-0243             
1 48774U 21045H   25338.58633492  .00000156  00000+0  38149-3 0  9992
2 48774  87.8988 298.0539 0002243  81.3948 278.7436 13.15548859218771
ONEWEB-0222             
1 48775U 21045J   25338.41758639  .00000142  00000+0  34282-3 0  9995
2 48775  87.8991 298.0407 0001986  79.0479 281.0875 13.15549732218793
ONEWEB-0244             
1 48776U 21045K   25338.59584461  .00000061  00000+0  12810-3 0  9998
2 48776  87.8998 297.9918 0001970  79.4322 280.7030 13.15549548219380
ONEWEB-0247             
1 48777U 21045L   25338.44056163 -.00000001  00000+0 -37760-4 0  9994
2 48777  87.8980 298.0808 0002787  78.7062 281.4382 13.15548162218807
ONEWEB-0245             
1 48778U 21045M   25338.58792128  .00000166  00000+0  40766-3 0  9997
2 48778  87.8982 298.0159 0001869  73.6399 286.4937 13.15548803218797
ONEWEB-0229             
1 48779U 21045N   25338.58316595  .00000139  00000+0  33486-3 0  9999
2 48779  87.8980 298.0155 0001951  82.4455 277.6897 13.15548163218825
ONEWEB-0228             
1 48780U 21045P   25338.61656558 -.00000914  00000+0 -24625-2 0  9998
2 48780  87.8984 297.9917 0002025  79.8796 280.2563 13.15550125218748
ONEWEB-0232             
1 48781U 21045Q   25338.59109443  .00000129  00000+0  30860-3 0  9997
2 48781  87.8998 297.9888 0001862  80.0059 280.1281 13.15548464219060
ONEWEB-0231             
1 48782U 21045R   25338.64496970  .00000153  00000+0  37302-3 0  9993
2 48782  87.8979 298.0220 0002111  79.8142 280.3227 13.15548499218765
ONEWEB-0234             
1 48783U 21045S   25338.60679521 -.00000071  00000+0 -22158-3 0  9999
2 48783  87.8986 298.0029 0001252  56.2388 303.8861 13.15547966218894
ONEWEB-0238             
1 48784U 21045T   25338.60705942 -.00000024  00000+0 -97581-4 0  9998
2 48784  87.8981 297.9967 0001584  74.4540 285.6765 13.15550396218799
ONEWEB-0240             
1 48785U 21045U   25338.40015647 -.00000017  00000+0 -80005-4 0  9998
2 48785  87.8994 298.0319 0002015  71.4483 288.6866 13.15549750218797
ONEWEB-0246             
1 48786U 21045V   25338.39460787 -.00000071  00000+0 -22362-3 0  9997
2 48786  87.8989 298.0436 0001979  83.6520 276.4835 13.15549249218667
ONEWEB-0210             
1 48787U 21045W   25338.59742917  .00000034  00000+0  57321-4 0  9999
2 48787  87.8991 298.0021 0002499  84.6913 275.4503 13.15549011218732
ONEWEB-0214             
1 48788U 21045X   25338.45401321 -.00000011  00000+0 -63326-4 0  9995
2 48788  87.8999 298.0212 0002200  88.0008 272.1374 13.15546807218680
ONEWEB-0221             
1 48789U 21045Y   25338.38510095 -.00000107  00000+0 -31718-3 0  9992
2 48789  87.8987 298.0506 0002041  77.6184 282.5174 13.15548691218761
ONEWEB-0213             
1 48790U 21045Z   25338.60217969  .00000014  00000+0  37754-5 0  9996
2 48790  87.8982 298.0159 0002119  79.7222 280.4147 13.15550352218858
